HORYU-4                 
1 41340U 16012D   21066.46551461  .00000796  00000-0  52963-4 0  9990
2 41340  31.0052  96.5393 0013772 240.0060 119.9209 15.01771023277444
E-ST@R-II               
1 41459U 16025D   21066.55013835  .00002779  00000-0  13899-3 0  9990
2 41459  98.1252 196.8171 0162218  46.5541 314.9012 15.07577007267060
AAUSAT 4                
1 41460U 16025E   21066.57962660  .00003344  00000-0  15982-3 0  9997
2 41460  98.1238 200.2299 0149769  31.6830 329.3283 15.10393151267339
BEESAT-4                
1 41619U 16040W   21066.11761772  .00002437  00000-0  10034-3 0  9996
2 41619  97.2840 125.0342 0009976 341.9776  18.1107 15.25016982249415
CANX-7                  
1 41788U 16059F   21066.53636826  .00017900  00000-0  21609-2 0  9990
2 41788  98.2540 168.0049 0032374 173.1082 187.0625 14.83455398238740
RAVAN                   
1 41849U 16067B   21066.33206114  .00000976  00000-0  85895-4 0  9992
2 41849  97.9485 187.0380 0009415  93.2909 266.9390 14.98896053235994
CELTEE 1                
1 41850U 16067C   21066.04521997  .00000233  00000-0  25328-4 0  9992
2 41850  97.9411 183.6398 0009805  94.3775 265.8567 14.97369650235791
OPTICUBE 04             
1 41851U 16067D   21066.29276907 -.00000245  00000-0 -15966-4 0  9990
2 41851  97.9408 183.3533 0010274  94.0724 266.1671 14.97057645235809
AEROCUBE 8D             
1 41852U 16067E   21066.30514151  .00000140  00000-0  17408-4 0  9994
2 41852  97.9402 183.2244 0010707  95.4437 264.8006 14.97122558235789
AEROCUBE 8C             
1 41853U 16067F   21066.54335191  .00000944  00000-0  87046-4 0  9993
2 41853  97.9409 183.3439 0011716  95.9125 264.3431 14.97094900235814
PROMETHEUS 2-1          
1 41854U 16067G   21066.31447789  .00000723  00000-0  67225-4 0  9998
2 41854  97.9406 183.6288 0011261  96.4870 263.7634 14.97521908235805
PROMETHEUS 2-3          
1 41855U 16067H   21066.31297564  .00000694  00000-0  64709-4 0  9994
2 41855  97.9409 183.6739 0011408  96.6216 263.6304 14.97537579235803
INS-1B                  
1 41954U 17008G   21066.10729895  .00002434  00000-0  98096-4 0  9994
2 41954  97.3202 131.4285 0010596  94.2685 265.9764 15.25732150225400
BGUSAT                  
1 41999U 17008BD  21066.43576794  .00004439  00000-0  15933-3 0  9992
2 41999  97.3353 137.5478 0009326  98.2231 262.0067 15.29162584225111
DIDO-2                  
1 42000U 17008BE  21066.40829781  .00001730  00000-0  71856-4 0  9998
2 42000  97.3207 132.0790 0009948 109.2364 250.9952 15.25105488224833
PEASSS                  
1 42015U 17008BV  21066.43505063  .00002225  00000-0  88002-4 0  9992
2 42015  97.3239 134.2934 0007881 109.0655 251.1438 15.26479025225456
AL-FARABI 1             
1 42016U 17008BW  21066.22785691  .00002881  00000-0  10951-3 0  9992
2 42016  97.3281 135.6313 0007673 108.9281 251.2791 15.27571225225620
NAYIF-1 (EO-88)         
1 42017U 17008BX  21066.13347403  .00002846  00000-0  10804-3 0  9996
2 42017  97.3275 135.5469 0007726 108.4492 251.7588 15.27620443225630
UCLSAT                  
1 42765U 17036A   21066.40137705  .00002322  00000-0  97369-4 0  9990
2 42765  97.2648 119.1381 0011315 169.6864 190.4608 15.24419649206626
LITUANICASAT-2          
1 42768U 17036D   21066.37295710  .00003692  00000-0  14793-3 0  9990
2 42768  97.2721 119.6146 0014785 160.9692 199.2101 15.25550164205906
AALTO-1                 
1 42775U 17036L   21066.35406818  .00001499  00000-0  67662-4 0  9996
2 42775  97.2623 116.1086 0013958 167.7023 192.4557 15.22402073205669
URSA MAIOR              
1 42776U 17036M   21066.37332860  .00001619  00000-0  72348-4 0  9995
2 42776  97.2636 116.5367 0013781 167.0342 193.1252 15.22641285205683
COMPASS 2               
1 42777U 17036N   21066.11394420  .00002879  00000-0  11761-3 0  9998
2 42777  97.2703 119.6276 0012457 162.2040 197.9637 15.25101895205818
DIAMOND RED             
1 42783U 17036U   21066.39585162  .00001756  00000-0  76267-4 0  9996
2 42783  97.2650 118.1043 0011927 173.4917 186.6478 15.23544554205774
PEGASUS                 
1 42784U 17036V   21066.41948557  .00002072  00000-0  88186-4 0  9996
2 42784  97.2656 118.7311 0011846 171.5139 188.6302 15.24030309205812
DIAMOND GREEN           
1 42785U 17036W   21066.39491347  .00001802  00000-0  78169-4 0  9994
2 42785  97.2653 118.1471 0011881 173.9557 186.1826 15.23550104205846
DIAMOND BLUE            
1 42786U 17036X   21066.39390044  .00001868  00000-0  80917-4 0  9993
2 42786  97.2652 118.1396 0011666 174.2229 185.9146 15.23547508205849
NUDTSAT                 
1 42787U 17036Y   21066.61404576  .00003145  00000-0  12586-3 0  9991
2 42787  97.2708 121.0037 0010254 163.2392 196.9177 15.25749871205809
SUCHAI                  
1 42788U 17036Z   21065.81250590  .00002452  00000-0  10172-3 0  9997
2 42788  97.2664 119.0033 0011381 170.7444 189.4006 15.24734367205842
SKCUBE                  
1 42789U 17036AA  21066.41583102  .00002310  00000-0  96641-4 0  9992
2 42789  97.2658 119.3476 0011328 169.2556 190.8926 15.24510433205841
VZLUSAT-1               
1 42790U 17036AB  21066.40990500  .00002985  00000-0  11964-3 0  9999
2 42790  97.2690 120.7953 0010900 165.1957 194.9602 15.25730730205920
ROBUSTA-1B              
1 42792U 17036AD  21066.40011175  .00002422  00000-0  10051-3 0  9995
2 42792  97.2662 119.6728 0010924 169.0663 191.0815 15.24734332205870
CICERO 6                
1 42793U 17036AE  21066.39061809  .00001632  00000-0  70619-4 0  9992
2 42793  97.2634 118.6743 0010172 172.3392 187.8003 15.23770714205894
D-SAT                   
1 42794U 17036AF  21066.52024486  .00000218  00000-0  24147-4 0  9992
2 42794  97.4709  91.7835 0125111 205.9047 153.5875 14.91471619201869
CORVUS BC2              
1 42846U 17042X   21066.44400298  .00000143  00000-0  19154-4 0  9996
2 42846  97.4888 303.5900 0010984 115.5786 244.6570 14.92240551198622
CORVUS BC1              
1 42847U 17042Y   21066.28766691  .00000226  00000-0  27239-4 0  9996
2 42847  97.4890 303.6599 0010610 115.1094 245.1228 14.92343051198608
MIRATA                  
1 43015U 17073C   21066.47683180  .00001781  00000-0  14220-3 0  9992
2 43015  97.7105 334.6659 0249297 270.1234  87.1416 14.80403994178120
MAKERSAT 0              
1 43016U 17073D   21066.46321851  .00001274  00000-0  10383-3 0  9999
2 43016  97.7145 334.7497 0252798 271.9859  85.2424 14.79755579178099
DELLINGR (RBLE)         
1 43021U 98067NJ  21066.23387245  .00083174  00000-0  30837-3 0  9996
2 43021  51.6304   5.1629 0001323  85.5996 274.5160 15.87378165188323
AEROCUBE 7B (OCSD B)    
1 43042U 17071F   21066.44783383  .00008703  00000-0  17915-3 0  9998
2 43042  51.6359 213.5442 0003365 292.0201  68.0429 15.46764959183038
AEROCUBE 7C (OCSD C)    
1 43043U 17071G   21066.39526904  .00008805  00000-0  18201-3 0  9999
2 43043  51.6352 213.9552 0003609 297.1689  62.8930 15.46625968182994
CHEFSAT                 
1 43044U 17071H   21066.47556631  .00021040  00000-0  30910-3 0  9996
2 43044  51.6348 186.3772 0003377 314.0909  45.9804 15.55437472183379
ASGARDIA 1              
1 43049U 17071N   21066.45626079  .00008272  00000-0  17190-3 0  9990
2 43049  51.6370 212.9719 0001566 321.9845  38.1032 15.46561024183019
ISARA                   
1 43050U 17071P   21066.37220369  .00019245  00000-0  30548-3 0  9999
2 43050  51.6326 192.2436 0001563 327.9334  32.1561 15.53370701183282
PROPCUBE 2 (FAUNA)      
1 43052U 17071R   21066.41147215  .00009785  00000-0  19677-3 0  9992
2 43052  51.6359 210.4311 0001518 319.0692  41.0182 15.47290379183030
CORVUS BC3              
1 43118U 18004H   21066.19404231  .00001550  00000-0  66979-4 0  9991
2 43118  97.4134 139.9561 0009488 200.7531 159.3322 15.23961498175004
MICROMAS-2A             
1 43131U 18004W   21066.48825080  .00003881  00000-0  15066-3 0  9996
2 43131  97.4197 143.0736 0008317 192.6095 167.4937 15.26662917175203
SPACEBEE-4              
1 43139U 18004AE  21066.45221230  .00005357  00000-0  19533-3 0  9991
2 43139  97.4251 144.9904 0007750 190.7464 169.3611 15.28570449175309
SPACEBEE-3              
1 43140U 18004AF  21066.46688926  .00006893  00000-0  23979-3 0  9998
2 43140  97.4276 146.2093 0007467 187.0131 173.1006 15.30007312175372
SPACEBEE-2              
1 43141U 18004AG  21066.44651704  .00007629  00000-0  26110-3 0  9999
2 43141  97.4293 146.6519 0007423 185.6270 174.4888 15.30500562175398
SPACEBEE-1              
1 43142U 18004AH  21066.46794421  .00008201  00000-0  27541-3 0  9992
2 43142  97.4301 147.1342 0007374 184.9037 175.2133 15.31091014175410
CICERO 7                
1 43143U 18004AJ  21066.49050151  .00003540  00000-0  13801-3 0  9996
2 43143  97.4173 143.1760 0006381 199.5862 160.5133 15.26590118175222
GOMX-4B                 
1 43196U 18015E   21066.29524905  .00000865  00000-0  37753-4 0  9997
2 43196  97.4676 199.4825 0016793 258.5171 101.4180 15.24766445171948
GOMX-4A                 
1 43197U 18015F   21066.46966150  .00001960  00000-0  80911-4 0  9990
2 43197  97.4660 199.8438 0017046 258.8758 173.4259 15.25134856171999
TEMPEST-D               
1 43547U 98067NV  21066.35061332  .00114826  00000-0  63722-3 0  9996
2 43547  51.6355  55.7608 0002764   6.3916 353.7119 15.78671050150741
AEROCUBE 12A            
1 43556U 18046C   21066.21385762  .00003227  00000-0  11770-3 0  9994
2 43556  51.6396 281.9824 0008338 152.7959 207.3460 15.31113213147611
AEROCUBE 12B            
1 43557U 18046D   21066.01073308  .00003137  00000-0  11647-3 0  9996
2 43557  51.6402 284.3509 0008425 151.8848 208.2589 15.30618238147518
SURFSAT                 
1 43614U 18070B   21066.50647536  .00005018  00000-0  12087-3 0  9990
2 43614  93.0232 263.6312 0016303  46.8814 313.3802 15.41156643138969
CP7 (DAVE)              
1 43615U 18070C   21066.50580062  .00004821  00000-0  11710-3 0  9994
2 43615  93.0235 263.5995 0016482  46.6787 313.5839 15.40903061138958
